[{"OBJECT_NAME":"ONEWEB-0658","OBJECT_ID":"2023-029Z","EPOCH":"2025-08-06T21:12:09.866592","MEAN_MOTION":13.19724025,"ECCENTRICITY":0.00018057,"INCLINATION":87.925,"RA_OF_ASC_NODE":7.4056,"ARG_OF_PERICENTER":79.2971,"MEAN_ANOMALY":280.8365,"EPHEMERIS_TYPE":0,"CLASSIFICATION_TYPE":"U","NORAD_CAT_ID":55819,"ELEMENT_SET_NO":999,"REV_AT_EPOCH":11746,"BSTAR":-7.0173748e-5,"MEAN_MOTION_DOT":-1.5e-7,"MEAN_MOTION_DDOT":0},{"OBJECT_NAME":"ONEWEB-0660","OBJECT_ID":"2023-029AA","EPOCH":"2025-08-06T21:53:55.432032","MEAN_MOTION":13.14501597,"ECCENTRICITY":0.00021461,"INCLINATION":87.9077,"RA_OF_ASC_NODE":352.2232,"ARG_OF_PERICENTER":92.3805,"MEAN_ANOMALY":267.757,"EPHEMERIS_TYPE":0,"CLASSIFICATION_TYPE":"U","NORAD_CAT_ID":55820,"ELEMENT_SET_NO":999,"REV_AT_EPOCH":11811,"BSTAR":0.0001640106,"MEAN_MOTION_DOT":7.4e-7,"MEAN_MOTION_DDOT":0},{"OBJECT_NAME":"ONEWEB-0661","OBJECT_ID":"2023-029AB","EPOCH":"2025-08-06T20:54:32.777280","MEAN_MOTION":13.14502515,"ECCENTRICITY":0.00021945,"INCLINATION":87.9076,"RA_OF_ASC_NODE":352.3028,"ARG_OF_PERICENTER":94.783,"MEAN_ANOMALY":265.355,"EPHEMERIS_TYPE":0,"CLASSIFICATION_TYPE":"U","NORAD_CAT_ID":55821,"ELEMENT_SET_NO":999,"REV_AT_EPOCH":11809,"BSTAR":-0.00026409785,"MEAN_MOTION_DOT":-8.5e-7,"MEAN_MOTION_DDOT":0},{"OBJECT_NAME":"ONEWEB-0662","OBJECT_ID":"2023-029AC","EPOCH":"2025-08-06T21:44:47.285376","MEAN_MOTION":13.14500131,"ECCENTRICITY":0.00022342,"INCLINATION":87.9079,"RA_OF_ASC_NODE":352.303,"ARG_OF_PERICENTER":90.8639,"MEAN_ANOMALY":269.2747,"EPHEMERIS_TYPE":0,"CLASSIFICATION_TYPE":"U","NORAD_CAT_ID":55822,"ELEMENT_SET_NO":999,"REV_AT_EPOCH":11814,"BSTAR":-0.0003164546,"MEAN_MOTION_DOT":-1.05e-6,"MEAN_MOTION_DDOT":0},{"OBJECT_NAME":"ONEWEB-0663","OBJECT_ID":"2023-029AD","EPOCH":"2025-08-06T20:49:20.348832","MEAN_MOTION":13.20841426,"ECCENTRICITY":0.00021582,"INCLINATION":87.931,"RA_OF_ASC_NODE":337.105,"ARG_OF_PERICENTER":87.9653,"MEAN_ANOMALY":272.1728,"EPHEMERIS_TYPE":0,"CLASSIFICATION_TYPE":"U","NORAD_CAT_ID":55823,"ELEMENT_SET_NO":999,"REV_AT_EPOCH":11965,"BSTAR":-0.00034744905,"MEAN_MOTION_DOT":-1.28e-6,"MEAN_MOTION_DDOT":0},{"OBJECT_NAME":"ONEWEB-0664","OBJECT_ID":"2023-029AE","EPOCH":"2025-08-06T21:02:13.268544","MEAN_MOTION":13.20771977,"ECCENTRICITY":0.00022892,"INCLINATION":87.9302,"RA_OF_ASC_NODE":337.1251,"ARG_OF_PERICENTER":103.2583,"MEAN_ANOMALY":256.8806,"EPHEMERIS_TYPE":0,"CLASSIFICATION_TYPE":"U","NORAD_CAT_ID":55824,"ELEMENT_SET_NO":999,"REV_AT_EPOCH":11965,"BSTAR":-0.0001778516,"MEAN_MOTION_DOT":-5.9e-7,"MEAN_MOTION_DDOT":0},{"OBJECT_NAME":"ONEWEB-0665","OBJECT_ID":"2023-029AF","EPOCH":"2025-08-06T20:49:58.276704","MEAN_MOTION":13.14504551,"ECCENTRICITY":0.0001984,"INCLINATION":87.9076,"RA_OF_ASC_NODE":352.278,"ARG_OF_PERICENTER":91.2398,"MEAN_ANOMALY":268.896,"EPHEMERIS_TYPE":0,"CLASSIFICATION_TYPE":"U","NORAD_CAT_ID":55825,"ELEMENT_SET_NO":999,"REV_AT_EPOCH":11811,"BSTAR":-0.00029449536,"MEAN_MOTION_DOT":-9.6e-7,"MEAN_MOTION_DDOT":0},{"OBJECT_NAME":"ONEWEB-0666","OBJECT_ID":"2023-029AG","EPOCH":"2025-08-06T20:53:07.019232","MEAN_MOTION":13.20772853,"ECCENTRICITY":0.00013644,"INCLINATION":87.93,"RA_OF_ASC_NODE":337.115,"ARG_OF_PERICENTER":118.7863,"MEAN_ANOMALY":241.3408,"EPHEMERIS_TYPE":0,"CLASSIFICATION_TYPE":"U","NORAD_CAT_ID":55826,"ELEMENT_SET_NO":999,"REV_AT_EPOCH":11966,"BSTAR":-0.00011265388,"MEAN_MOTION_DOT":-3.3e-7,"MEAN_MOTION_DDOT":0},{"OBJECT_NAME":"ONEWEB-0667","OBJECT_ID":"2023-029AH","EPOCH":"2025-08-06T18:54:57.702240","MEAN_MOTION":13.20772685,"ECCENTRICITY":0.00020547,"INCLINATION":87.9293,"RA_OF_ASC_NODE":337.0602,"ARG_OF_PERICENTER":95.1142,"MEAN_ANOMALY":265.0226,"EPHEMERIS_TYPE":0,"CLASSIFICATION_TYPE":"U","NORAD_CAT_ID":55827,"ELEMENT_SET_NO":999,"REV_AT_EPOCH":11964,"BSTAR":-0.00012540113,"MEAN_MOTION_DOT":-3.8e-7,"MEAN_MOTION_DDOT":0},{"OBJECT_NAME":"ONEWEB-0669","OBJECT_ID":"2023-029AJ","EPOCH":"2025-08-06T20:37:13.564128","MEAN_MOTION":13.20771327,"ECCENTRICITY":0.00022295,"INCLINATION":87.9301,"RA_OF_ASC_NODE":337.084,"ARG_OF_PERICENTER":116.8594,"MEAN_ANOMALY":243.2767,"EPHEMERIS_TYPE":0,"CLASSIFICATION_TYPE":"U","NORAD_CAT_ID":55828,"ELEMENT_SET_NO":999,"REV_AT_EPOCH":11965,"BSTAR":-0.00021219796,"MEAN_MOTION_DOT":-7.3e-7,"MEAN_MOTION_DDOT":0},{"OBJECT_NAME":"ONEWEB-0670","OBJECT_ID":"2023-029AK","EPOCH":"2025-08-06T22:07:35.971104","MEAN_MOTION":13.1450437,"ECCENTRICITY":0.00022562,"INCLINATION":87.9084,"RA_OF_ASC_NODE":352.287,"ARG_OF_PERICENTER":97.0412,"MEAN_ANOMALY":263.0975,"EPHEMERIS_TYPE":0,"CLASSIFICATION_TYPE":"U","NORAD_CAT_ID":55829,"ELEMENT_SET_NO":999,"REV_AT_EPOCH":11814,"BSTAR":-0.00019326535,"MEAN_MOTION_DOT":-5.9e-7,"MEAN_MOTION_DDOT":0},{"OBJECT_NAME":"ONEWEB-0671","OBJECT_ID":"2023-029AL","EPOCH":"2025-08-06T21:05:20.556960","MEAN_MOTION":13.1972633,"ECCENTRICITY":0.00020696,"INCLINATION":87.9244,"RA_OF_ASC_NODE":7.4648,"ARG_OF_PERICENTER":93.4755,"MEAN_ANOMALY":266.6614,"EPHEMERIS_TYPE":0,"CLASSIFICATION_TYPE":"U","NORAD_CAT_ID":55830,"ELEMENT_SET_NO":999,"REV_AT_EPOCH":11744,"BSTAR":-5.8357199e-5,"MEAN_MOTION_DOT":-1.0e-7,"MEAN_MOTION_DDOT":0},{"OBJECT_NAME":"ONEWEB-0672","OBJECT_ID":"2023-029AM","EPOCH":"2025-08-06T20:30:23.347296","MEAN_MOTION":13.20769951,"ECCENTRICITY":0.00017558,"INCLINATION":87.9296,"RA_OF_ASC_NODE":337.0706,"ARG_OF_PERICENTER":107.1996,"MEAN_ANOMALY":252.9329,"EPHEMERIS_TYPE":0,"CLASSIFICATION_TYPE":"U","NORAD_CAT_ID":55831,"ELEMENT_SET_NO":999,"REV_AT_EPOCH":11965,"BSTAR":-0.00019433857,"MEAN_MOTION_DOT":-6.6e-7,"MEAN_MOTION_DDOT":0},{"OBJECT_NAME":"ONEWEB-0673","OBJECT_ID":"2023-029AN","EPOCH":"2025-08-06T22:20:24.365184","MEAN_MOTION":13.19725375,"ECCENTRICITY":0.000182,"INCLINATION":87.9249,"RA_OF_ASC_NODE":7.4182,"ARG_OF_PERICENTER":88.4206,"MEAN_ANOMALY":271.7135,"EPHEMERIS_TYPE":0,"CLASSIFICATION_TYPE":"U","NORAD_CAT_ID":55832,"ELEMENT_SET_NO":999,"REV_AT_EPOCH":11745,"BSTAR":-1.0960032e-5,"MEAN_MOTION_DOT":9.0e-8,"MEAN_MOTION_DDOT":0},{"OBJECT_NAME":"ONEWEB-0674","OBJECT_ID":"2023-029AP","EPOCH":"2025-08-06T21:21:58.091616","MEAN_MOTION":13.14502587,"ECCENTRICITY":0.00023198,"INCLINATION":87.9077,"RA_OF_ASC_NODE":352.2777,"ARG_OF_PERICENTER":99.5996,"MEAN_ANOMALY":260.5396,"EPHEMERIS_TYPE":0,"CLASSIFICATION_TYPE":"U","NORAD_CAT_ID":55833,"ELEMENT_SET_NO":999,"REV_AT_EPOCH":11812,"BSTAR":0.00041101355,"MEAN_MOTION_DOT":1.65e-6,"MEAN_MOTION_DDOT":0},{"OBJECT_NAME":"ONEWEB-0675","OBJECT_ID":"2023-029AQ","EPOCH":"2025-08-06T20:53:58.926624","MEAN_MOTION":13.19725912,"ECCENTRICITY":0.00014888,"INCLINATION":87.9239,"RA_OF_ASC_NODE":7.4774,"ARG_OF_PERICENTER":94.5315,"MEAN_ANOMALY":265.5988,"EPHEMERIS_TYPE":0,"CLASSIFICATION_TYPE":"U","NORAD_CAT_ID":55834,"ELEMENT_SET_NO":999,"REV_AT_EPOCH":11746,"BSTAR":-8.6142959e-5,"MEAN_MOTION_DOT":-2.2e-7,"MEAN_MOTION_DDOT":0}]
