ONEWEB-0658             
1 55819U 23029Z   25218.88344753 -.00000015  00000+0 -70174-4 0  9994
2 55819  87.9250   7.4056 0001805  79.2971 280.8365 13.19724025117467
ONEWEB-0660             
1 55820U 23029AA  25218.91244713  .00000074  00000+0  16401-3 0  9990
2 55820  87.9077 352.2232 0002146  92.3805 267.7570 13.14501597118111
ONEWEB-0661             
1 55821U 23029AB  25218.87121270 -.00000085  00000+0 -26410-3 0  9993
2 55821  87.9076 352.3028 0002194  94.7830 265.3550 13.14502515118092
ONEWEB-0662             
1 55822U 23029AC  25218.90610284 -.00000105  00000+0 -31645-3 0  9995
2 55822  87.9079 352.3030 0002234  90.8639 269.2747 13.14500131118147
ONEWEB-0663             
1 55823U 23029AD  25218.86759663 -.00000128  00000+0 -34745-3 0  9995
2 55823  87.9310 337.1050 0002158  87.9653 272.1728 13.20841426119658
ONEWEB-0664             
1 55824U 23029AE  25218.87654246 -.00000059  00000+0 -17785-3 0  9996
2 55824  87.9302 337.1251 0002289 103.2583 256.8806 13.20771977119651
ONEWEB-0665             
1 55825U 23029AF  25218.86803561 -.00000096  00000+0 -29450-3 0  9995
2 55825  87.9076 352.2780 0001984  91.2398 268.8960 13.14504551118115
ONEWEB-0666             
1 55826U 23029AG  25218.87022013 -.00000033  00000+0 -11265-3 0  9998
2 55826  87.9300 337.1150 0001364 118.7863 241.3408 13.20772853119666
ONEWEB-0667             
1 55827U 23029AH  25218.78816785 -.00000038  00000+0 -12540-3 0  9998
2 55827  87.9293 337.0602 0002054  95.1142 265.0226 13.20772685119646
ONEWEB-0669             
1 55828U 23029AJ  25218.85918477 -.00000073  00000+0 -21220-3 0  9992
2 55828  87.9301 337.0840 0002229 116.8594 243.2767 13.20771327119658
ONEWEB-0670             
1 55829U 23029AK  25218.92194411 -.00000059  00000+0 -19327-3 0  9994
2 55829  87.9084 352.2870 0002256  97.0412 263.0975 13.14504370118147
ONEWEB-0671             
1 55830U 23029AL  25218.87871015 -.00000010  00000+0 -58357-4 0  9996
2 55830  87.9244   7.4648 0002069  93.4755 266.6614 13.19726330117449
ONEWEB-0672             
1 55831U 23029AM  25218.85443689 -.00000066  00000+0 -19434-3 0  9990
2 55831  87.9296 337.0706 0001755 107.1996 252.9329 13.20769951119659
ONEWEB-0673             
1 55832U 23029AN  25218.93083756  .00000009  00000+0 -10960-4 0  9997
2 55832  87.9249   7.4182 0001820  88.4206 271.7135 13.19725375117452
ONEWEB-0674             
1 55833U 23029AP  25218.89025569  .00000165  00000+0  41101-3 0  9993
2 55833  87.9077 352.2777 0002319  99.5996 260.5396 13.14502587118129
ONEWEB-0675             
1 55834U 23029AQ  25218.87082091 -.00000022  00000+0 -86143-4 0  9995
2 55834  87.9239   7.4774 0001488  94.5315 265.5988 13.19725912117464
